STARLINK-2736
1 18640C 21044C   21326.17933648 -.00012018  00000-0 -80540-3 0  3266
2 18640  53.0555 317.9281 0001658  53.5305 357.0218 15.06401708    18
